ONEWEB-0589             
1 54655U 22166P   25354.78062819 -.00000024  00000+0 -90355-4 0  9995
2 54655  87.9224 279.5743 0002177  98.7588 261.3793 13.21827556147977
ONEWEB-0590             
1 54656U 22166Q   25354.88087302 -.00000125  00000+0 -33535-3 0  9999
2 54656  87.9224 279.5315 0001373  83.4331 276.6959 13.21825539147979
ONEWEB-0591             
1 54657U 22166R   25354.81683508  .00000129  00000+0  27991-3 0  9994
2 54657  87.9220 279.5680 0001731  78.9457 281.1871 13.21825387147994
ONEWEB-0592             
1 54658U 22166S   25354.82012754  .00000105  00000+0  22319-3 0  9998
2 54658  87.9231 279.5309 0001788  78.0828 282.0506 13.21826055147875
ONEWEB-0593             
1 54659U 22166T   25354.84315807 -.00000041  00000+0 -13151-3 0  9991
2 54659  87.9224 279.5519 0001901  76.0450 284.0895 13.21827064147983
ONEWEB-0594             
1 54660U 22166U   25354.86291299 -.00000087  00000+0 -24166-3 0  9991
2 54660  87.9226 279.5660 0001766  74.9586 285.1743 13.21825326148007
ONEWEB-0595             
1 54661U 22166V   25354.83987066 -.00000044  00000+0 -13770-3 0  9995
2 54661  87.9223 279.5436 0001662  71.9710 288.1605 13.21825090147970
ONEWEB-0596             
1 54662U 22166W   25354.81354491  .00000033  00000+0  47237-4 0  9996
2 54662  87.9226 279.5656 0001716  76.8391 283.2934 13.21825753147974
